{
  "type": "FeatureCollection",
  "features": [
    {
      "type": "Feature",
      "properties": {
        "norad_id": 41890,
        "name": "CYGFM07",
        "group": "weather",
        "lat": -24.444119530748,
        "lon": 3.7984645116554203,
        "alt_km": 422.8143062574227,
        "timestamp": "2025-12-09T05:43:20.370002+00:00",
        "meta_object_name": "CYGFM07",
        "meta_object_id": "2016-078G",
        "meta_epoch": "2025-12-08T14:27:41.221152",
        "meta_mean_motion": 15.49748278,
        "meta_eccentricity": 0.0009451,
        "meta_inclination": 34.948,
        "meta_ra_of_asc_node": 48.5742,
        "meta_arg_of_pericenter": 178.7665,
        "meta_mean_anomaly": 181.3082,
        "meta_ephemeris_type": 0,
        "meta_classification_type": "U",
        "meta_norad_cat_id": 41890,
        "meta_element_set_no": 999,
        "meta_rev_at_epoch": 49931,
        "meta_bstar": 0.00049171,
        "meta_mean_motion_dot": 0.00028275,
        "meta_mean_motion_ddot": 0,
        "tle_line1": "1 41890U 16078G   25342.60256043  .00028275  00000+0  49171-3 0  9994",
        "tle_line2": "2 41890  34.9480  48.5742 0009451 178.7665 181.3082 15.49748278499315"
      },
      "geometry": {
        "type": "Point",
        "coordinates": [
          3.7984645116554203,
          -24.444119530748
        ]
      }
    },
    {
      "type": "Feature",
      "properties": {
        "norad_id": 41891,
        "name": "CYGFM03",
        "group": "weather",
        "lat": 16.7960950115912,
        "lon": -159.29027168878915,
        "alt_km": 408.63009115516707,
        "timestamp": "2025-12-09T05:43:20.370020+00:00",
        "meta_object_name": "CYGFM03",
        "meta_object_id": "2016-078H",
        "meta_epoch": "2025-12-08T15:09:54.108000",
        "meta_mean_motion": 15.49651894,
        "meta_eccentricity": 0.0008731,
        "meta_inclination": 34.9436,
        "meta_ra_of_asc_node": 50.2977,
        "meta_arg_of_pericenter": 166.471,
        "meta_mean_anomaly": 193.6247,
        "meta_ephemeris_type": 0,
        "meta_classification_type": "U",
        "meta_norad_cat_id": 41891,
        "meta_element_set_no": 999,
        "meta_rev_at_epoch": 49929,
        "meta_bstar": 0.00050514,
        "meta_mean_motion_dot": 0.00028945,
        "meta_mean_motion_ddot": 0,
        "tle_line1": "1 41891U 16078H   25342.63187625  .00028945  00000+0  50514-3 0  9994",
        "tle_line2": "2 41891  34.9436  50.2977 0008731 166.4710 193.6247 15.49651894499295"
      },
      "geometry": {
        "type": "Point",
        "coordinates": [
          -159.29027168878915,
          16.7960950115912
        ]
      }
    },
    {
      "type": "Feature",
      "properties": {
        "norad_id": 43010,
        "name": "FENGYUN 3D",
        "group": "weather",
        "lat": 56.00529706342454,
        "lon": 143.0705533023648,
        "alt_km": 820.8605408223866,
        "timestamp": "2025-12-09T05:43:20.370032+00:00",
        "meta_object_name": "FENGYUN 3D",
        "meta_object_id": "2017-072A",
        "meta_epoch": "2025-12-08T20:41:17.613888",
        "meta_mean_motion": 14.19681243,
        "meta_eccentricity": 7.54e-05,
        "meta_inclination": 98.989,
        "meta_ra_of_asc_node": 309.1135,
        "meta_arg_of_pericenter": 195.0846,
        "meta_mean_anomaly": 165.0307,
        "meta_ephemeris_type": 0,
        "meta_classification_type": "U",
        "meta_norad_cat_id": 43010,
        "meta_element_set_no": 999,
        "meta_rev_at_epoch": 41798,
        "meta_bstar": -5.3836e-05,
        "meta_mean_motion_dot": -1.6e-06,
        "meta_mean_motion_ddot": 0,
        "tle_line1": "1 43010U 17072A   25342.86200942 -.00000160  00000+0 -53836-4 0  9999",
        "tle_line2": "2 43010  98.9890 309.1135 0000754 195.0846 165.0307 14.19681243417984"
      },
      "geometry": {
        "type": "Point",
        "coordinates": [
          143.0705533023648,
          56.00529706342454
        ]
      }
    },
    {
      "type": "Feature",
      "properties": {
        "norad_id": 43013,
        "name": "NOAA 20 (JPSS-1)",
        "group": "weather",
        "lat": -78.64180056948544,
        "lon": -30.29365894913089,
        "alt_km": 835.8093891702893,
        "timestamp": "2025-12-09T05:43:20.370044+00:00",
        "meta_object_name": "NOAA 20 (JPSS-1)",
        "meta_object_id": "2017-073A",
        "meta_epoch": "2025-12-08T19:57:42.437088",
        "meta_mean_motion": 14.19524214,
        "meta_eccentricity": 0.0002133,
        "meta_inclination": 98.7593,
        "meta_ra_of_asc_node": 279.1714,
        "meta_arg_of_pericenter": 93.098,
        "meta_mean_anomaly": 267.044,
        "meta_ephemeris_type": 0,
        "meta_classification_type": "U",
        "meta_norad_cat_id": 43013,
        "meta_element_set_no": 999,
        "meta_rev_at_epoch": 41746,
        "meta_bstar": 0.00011451,
        "meta_mean_motion_dot": 1.97e-06,
        "meta_mean_motion_ddot": 0,
        "tle_line1": "1 43013U 17073A   25342.83174117  .00000197  00000+0  11451-3 0  9998",
        "tle_line2": "2 43013  98.7593 279.1714 0002133  93.0980 267.0440 14.19524214417461"
      },
      "geometry": {
        "type": "Point",
        "coordinates": [
          -30.29365894913089,
          -78.64180056948544
        ]
      }
    },
    {
      "type": "Feature",
      "properties": {
        "norad_id": 43226,
        "name": "GOES 17",
        "group": "weather",
        "lat": -0.09183424737421052,
        "lon": 74.58128986625226,
        "alt_km": 35799.78114148863,
        "timestamp": "2025-12-09T05:43:20.370064+00:00",
        "meta_object_name": "GOES 17",
        "meta_object_id": "2018-022A",
        "meta_epoch": "2025-12-08T14:53:22.356960",
        "meta_mean_motion": 1.00271693,
        "meta_eccentricity": 0.0003422,
        "meta_inclination": 0.4492,
        "meta_ra_of_asc_node": 89.1814,
        "meta_arg_of_pericenter": 185.3284,
        "meta_mean_anomaly": 296.9603,
        "meta_ephemeris_type": 0,
        "meta_classification_type": "U",
        "meta_norad_cat_id": 43226,
        "meta_element_set_no": 999,
        "meta_rev_at_epoch": 2851,
        "meta_bstar": 0,
        "meta_mean_motion_dot": -1.8e-06,
        "meta_mean_motion_ddot": 0,
        "tle_line1": "1 43226U 18022A   25342.62039765 -.00000180  00000+0  00000+0 0  9992",
        "tle_line2": "2 43226   0.4492  89.1814 0003422 185.3284 296.9603  1.00271693 28511"
      },
      "geometry": {
        "type": "Point",
        "coordinates": [
          74.58128986625226,
          -0.09183424737421052
        ]
      }
    },
    {
      "type": "Feature",
      "properties": {
        "norad_id": 43491,
        "name": "FENGYUN 2H",
        "group": "weather",
        "lat": 0.7614058974104548,
        "lon": -116.55705694872113,
        "alt_km": 35773.71862549166,
        "timestamp": "2025-12-09T05:43:20.370087+00:00",
        "meta_object_name": "FENGYUN 2H",
        "meta_object_id": "2018-050A",
        "meta_epoch": "2025-12-08T20:49:49.317888",
        "meta_mean_motion": 1.00271046,
        "meta_eccentricity": 0.0002953,
        "meta_inclination": 2.5402,
        "meta_ra_of_asc_node": 81.3617,
        "meta_arg_of_pericenter": 164.781,
        "meta_mean_anomaly": 223.5417,
        "meta_ephemeris_type": 0,
        "meta_classification_type": "U",
        "meta_norad_cat_id": 43491,
        "meta_element_set_no": 999,
        "meta_rev_at_epoch": 2753,
        "meta_bstar": 0,
        "meta_mean_motion_dot": -1.28e-06,
        "meta_mean_motion_ddot": 0,
        "tle_line1": "1 43491U 18050A   25342.86793192 -.00000128  00000+0  00000+0 0  9996",
        "tle_line2": "2 43491   2.5402  81.3617 0002953 164.7810 223.5417  1.00271046 27530"
      },
      "geometry": {
        "type": "Point",
        "coordinates": [
          -116.55705694872113,
          0.7614058974104548
        ]
      }
    },
    {
      "type": "Feature",
      "properties": {
        "norad_id": 43689,
        "name": "METOP-C",
        "group": "weather",
        "lat": 32.98659142336383,
        "lon": 35.36211150878277,
        "alt_km": 817.1412485790715,
        "timestamp": "2025-12-09T05:43:20.370109+00:00",
        "meta_object_name": "METOP-C",
        "meta_object_id": "2018-087A",
        "meta_epoch": "2025-12-08T19:25:47.504640",
        "meta_mean_motion": 14.21509801,
        "meta_eccentricity": 0.0001502,
        "meta_inclination": 98.6935,
        "meta_ra_of_asc_node": 40.6393,
        "meta_arg_of_pericenter": 49.0422,
        "meta_mean_anomaly": 311.0885,
        "meta_ephemeris_type": 0,
        "meta_classification_type": "U",
        "meta_norad_cat_id": 43689,
        "meta_element_set_no": 999,
        "meta_rev_at_epoch": 36778,
        "meta_bstar": 0.0001521,
        "meta_mean_motion_dot": 2.89e-06,
        "meta_mean_motion_ddot": 0,
        "tle_line1": "1 43689U 18087A   25342.80957760  .00000289  00000+0  15210-3 0  9992",
        "tle_line2": "2 43689  98.6935  40.6393 0001502  49.0422 311.0885 14.21509801367784"
      },
      "geometry": {
        "type": "Point",
        "coordinates": [
          35.36211150878277,
          32.98659142336383
        ]
      }
    }
  ]
}